{
    "links": {
        "self": "http://www.neowsapp.com/rest/v1/neo/3838826?api_key=iIulBulltgU6a56xZRHN4H3l9WmuAYTsLGpBGhQ2"
    },
    "id": "3838826",
    "neo_reference_id": "3838826",
    "name": "(2019 DE)",
    "designation": "2019 DE",
    "nasa_jpl_url": "http://ssd.jpl.nasa.gov/sbdb.cgi?sstr=3838826",
    "absolute_magnitude_h": 25.9,
    "estimated_diameter": {
        "kilometers": {
            "estimated_diameter_min": 0.0175612318,
            "estimated_diameter_max": 0.0392681082
        },
        "meters": {
            "estimated_diameter_min": 17.561231848,
            "estimated_diameter_max": 39.2681081809
        },
        "miles": {
            "estimated_diameter_min": 0.0109120402,
            "estimated_diameter_max": 0.0244000636
        },
        "feet": {
            "estimated_diameter_min": 57.6155918963,
            "estimated_diameter_max": 128.8323800441
        }
    },
    "is_potentially_hazardous_asteroid": false,
    "close_approach_data": [
        {
            "close_approach_date": "2019-02-27",
            "close_approach_date_full": "2019-Feb-27 03:19",
            "epoch_date_close_approach": 1551237540000,
            "relative_velocity": {
                "kilometers_per_second": "7.2363457478",
                "kilometers_per_hour": "26050.8446919339",
                "miles_per_hour": "16186.9818031631"
            },
            "miss_distance": {
                "astronomical": "0.0452956974",
                "lunar": "17.6200262886",
                "kilometers": "6776139.851204538",
                "miles": "4210498.0601491044"
            },
            "orbiting_body": "Earth"
        }
    ],
    "orbital_data": {
        "orbit_id": "6",
        "orbit_determination_date": "2019-03-14 06:56:12",
        "first_observation_date": "2019-02-26",
        "last_observation_date": "2019-03-12",
        "data_arc_in_days": 14,
        "observations_used": 37,
        "orbit_uncertainty": "8",
        "minimum_orbit_intersection": ".0444563",
        "jupiter_tisserand_invariant": "3.164",
        "epoch_osculation": "2458543.5",
        "eccentricity": ".5948400317947028",
        "semi_major_axis": "2.551076053467998",
        "inclination": "3.05812335861171",
        "ascending_node_longitude": "147.5126779966457",
        "orbital_period": "1488.276197712232",
        "perihelion_distance": "1.033593892712389",
        "perihelion_argument": "13.57698807268224",
        "aphelion_distance": "4.068558214223606",
        "perihelion_time": "2458544.003230019402",
        "mean_anomaly": "359.8782733962532",
        "mean_motion": ".2418905849286507",
        "equinox": "J2000",
        "orbit_class": {
            "orbit_class_type": "AMO",
            "orbit_class_description": "Near-Earth asteroid orbits similar to that of 1221 Amor",
            "orbit_class_range": "1.017 AU < q (perihelion) < 1.3 AU"
        }
    },
    "is_sentry_object": false
}